{
  "norad_id": 60412,
  "name": "STARLINK-32186",
  "history": [
    {
      "epoch": "2026-03-28T14:26:02.807232",
      "apogee_km": 476.1079686310677,
      "perigee_km": 474.36858198619393,
      "latitude_deg": 43.81746988124519,
      "longitude_deg": -81.06354752019979,
      "semi_major_axis_km": 6853.375275308631,
      "eccentricity": 0.0001269,
      "inclination_deg": 53.1603,
      "raan_deg": 154.917,
      "arg_perigee_deg": 92.0144,
      "mean_anomaly_deg": 268.1002,
      "mean_motion_rev_day": 15.30192228
    }
  ]
}